OPTICUBE 04             
1 41851U 16067D   18223.28019068 -.00000030  00000-0  26559-5 0  9995
2 41851  97.9240 312.1064 0008641 352.7479   7.3616 14.96694097 95333
AEROCUBE 8D             
1 41852U 16067E   18223.52387052  .00000581  00000-0  56403-4 0  9994
2 41852  97.9248 312.1912 0009075 350.1503   9.9539 14.96524836 95353
AEROCUBE 8C             
1 41853U 16067F   18223.53934805  .00000459  00000-0  45734-4 0  9999
2 41853  97.9253 312.1662 0009634 352.0801   8.0266 14.96493103 95354
PROMETHEUS 2-1          
1 41854U 16067G   18223.47477904  .00000478  00000-0  47254-4 0  9995
2 41854  97.9260 312.1238 0009921 351.6898   8.4157 14.96613465 95349
PROMETHEUS 2-3          
1 41855U 16067H   18223.47747815  .00000321  00000-0  33498-4 0  9999
2 41855  97.9262 312.1324 0010165 351.6701   8.4350 14.96612014 95347
ITF-2                   
1 41932U 98067KU  18223.45856401  .00035858  00000-0  19238-3 0  9993
2 41932  51.6306  55.2368 0002529  69.4832 290.6441 15.79910089 89496
WASEDA-SAT3             
1 41933U 98067KV  18223.57768848  .00090519  00000-0  28398-3 0  9996
2 41933  51.6312  43.8178 0000750 325.4979  34.5978 15.90680341 89653
AOBA-VELOX 3            
1 41935U 98067KX  18223.48976132  .00065154  00000-0  25966-3 0  9990
2 41935  51.6333  48.6195 0001130  60.8387 299.2730 15.85991910 89686
INS-1B                  
1 41954U 17008G   18223.24466157  .00000985  00000-0  44709-4 0  9990
2 41954  97.4422 286.7396 0010219 151.5234 208.6563 15.23136155 82381
BGUSAT                  
1 41999U 17008BD  18223.61850149  .00001522  00000-0  64250-4 0  9999
2 41999  97.4469 288.3381 0008925 165.0832 195.0671 15.24793774 81877
DIDO-2                  
1 42000U 17008BE  18223.50861955  .00000725  00000-0  33535-4 0  9994
2 42000  97.4438 287.4601 0008952 167.3862 192.7601 15.23294582 81824
PEASSS                  
1 42015U 17008BV  18223.19464826  .00000871  00000-0  38767-4 0  9995
2 42015  97.4437 287.6721 0006680 171.7533 188.3815 15.24123315 82290
AL-FARABI 1             
1 42016U 17008BW  18223.23745092  .00001085  00000-0  46946-4 0  9994
2 42016  97.4446 287.9537 0006573 171.3542 188.7810 15.24566217 82433
NAYIF-1 (EO-88)         
1 42017U 17008BX  18223.55898605  .00001102  00000-0  47602-4 0  9999
2 42017  97.4444 288.2804 0006587 170.3125 189.8241 15.24591742 82503
HAVELSAT                
1 42700U 98067LH  18222.67041729  .00025880  00000-0  18185-3 0  9993
2 42700  51.6350  75.5580 0003981 106.4764 253.6673 15.73965976 70595
CXBN-2                  
1 42704U 98067LM  18222.96121937  .00025116  00000-0  17999-3 0  9993
2 42704  51.6359  75.2745 0001426  60.9218 299.1923 15.73530133 70549
ICECUBE                 
1 42705U 98067LN  18222.73016196  .00090227  00000-0  33746-3 0  9992
2 42705  51.6449  64.0417 0000610   3.5625 356.5384 15.87169632 70738
PHOENIX                 
1 42706U 98067LP  18223.15831375  .00017350  00000-0  13891-3 0  9999
2 42706  51.6354  75.8427 0001234  71.9465 288.1667 15.71170183 70548
X-CUBESAT               
1 42707U 98067LQ  18223.07189962  .00031625  00000-0  21328-3 0  9994
2 42707  51.6306  72.8976 0000994  85.5301 274.5812 15.74809830 70568
QBEE50-LTU-OC           
1 42708U 98067LR  18222.73504043  .00026689  00000-0  18934-3 0  9991
2 42708  51.6360  75.9925 0001173  88.3894 271.7240 15.73728971 70452
ALTAIR PATHFINDER       
1 42711U 98067LS  18223.23301553  .00011814  00000-0  12003-3 0  9997
2 42711  51.6359  84.6278 0003558  40.5256 319.6004 15.65673252 70095
SHARC                   
1 42712U 98067LT  18223.22479212  .00019371  00000-0  18742-3 0  9997
2 42712  51.6373  86.1384 0002318  60.8790 299.2437 15.66432738 70319
ZA-AEROSAT              
1 42713U 98067LU  18222.98063653  .00016440  00000-0  13997-3 0  9999
2 42713  51.6346  79.8966 0001822  42.3843 317.7295 15.69728425 70130
LINK                    
1 42714U 98067LV  18222.94623128  .00102988  00000-0  34883-3 0  9995
2 42714  51.6212  62.0578 0001799 267.0480  93.0320 15.89115536 70477
CSUNSAT 1               
1 42715U 98067LW  18223.22906032  .00018679  00000-0  15280-3 0  9999
2 42715  51.6349  77.8263 0003069  35.9279 324.1925 15.70589280 70182
SPACECUBE               
1 42717U 98067LY  18223.01966575  .00026181  00000-0  18707-3 0  9990
2 42717  51.6323  74.8517 0002778 106.5306 253.5998 15.73571231 69573
HOOPOE                  
1 42718U 98067LZ  18223.13225853  .00038998  00000-0  23478-3 0  9991
2 42718  51.6289  70.3325 0002083 107.0569 253.0660 15.77298395 69649
CHALLENGER              
1 42721U 98067MA  18223.62102753  .03198768  12068-4  81490-3 0  9996
2 42721  51.6148  47.6024 0014520 289.1914  70.7535 16.27738545 69686
NJUST-1                 
1 42722U 98067MB  18223.52231995  .00015471  00000-0  13765-3 0  9992
2 42722  51.6352  79.0443 0005375  86.1394 274.0218 15.68696698 69260
UNSW-ECO                
1 42723U 98067MC  18223.16326381  .00042957  00000-0  24458-3 0  9997
2 42723  51.6380  69.8561 0003527  99.9657 260.1742 15.78501616 69333
LILACSAT-1              
1 42725U 98067ME  18223.52956208  .00023275  00000-0  17973-3 0  9992
2 42725  51.6351  75.3239 0004119  92.7687 267.3783 15.71806756 69238
NSIGHT-1                
1 42726U 98067MF  18223.52922106  .00005284  00000-0  64582-4 0  9992
2 42726  51.6387  88.1838 0005724  84.0555 276.1092 15.62282008 69055
SNUSAT-1                
1 42727U 98067MG  18222.65221755  .00021005  00000-0  16315-3 0  9997
2 42727  51.6334  79.9001 0005172  53.5672 306.5803 15.71735335 69049
I-INSPIRE II            
1 42731U 98067ML  18223.00680473  .00048747  00000-0  26699-3 0  9996
2 42731  51.6353  69.4650 0002805  37.3225 322.7970 15.79309640 69109
POLYITAN-2-SAU          
1 42732U 98067MM  18223.21197046  .00029831  00000-0  20366-3 0  9997
2 42732  51.6348  73.1386 0004330  43.0125 317.1212 15.74550306 69075
SNUSAT-1B               
1 42733U 98067MN  18222.97718418  .00022668  00000-0  16898-3 0  9998
2 42733  51.6339  76.8507 0004497  43.0973 317.0377 15.72661467 69009
EXALTA-1                
1 42734U 98067MP  18223.02111669  .00051612  00000-0  26831-3 0  9990
2 42734  51.6277  68.7311 0003702  77.7109 282.4307 15.80429974 69065
BEEAGLESAT              
1 42736U 98067MR  18223.21983965  .00021587  00000-0  17347-3 0  9999
2 42736  51.6341  77.7258 0005194  84.3284 275.8306 15.70900474 69078
UCLSAT                  
1 42765U 17036A   18223.43793179  .00000867  00000-0  41025-4 0  9997
2 42765  97.3967 282.3871 0010321 238.4204 121.6025 15.21970502 63703
LITUANICASAT-2          
1 42768U 17036D   18223.37964689  .00001442  00000-0  66929-4 0  9999
2 42768  97.3984 281.9059 0014398 228.5242 131.4759 15.21562299 62957
AALTO-1                 
1 42775U 17036L   18223.23690290  .00000554  00000-0  28186-4 0  9992
2 42775  97.3959 281.5801 0012943 227.1789 132.8359 15.20828950 62862
URSA MAIOR              
1 42776U 17036M   18223.61524932  .00000620  00000-0  31083-4 0  9998
2 42776  97.3966 282.0145 0012809 225.7973 134.2211 15.20915775 62920
COMPASS 2               
1 42777U 17036N   18223.11270624  .00001098  00000-0  51246-4 0  9993
2 42777  97.3989 282.0011 0011600 230.4788 129.5423 15.21887214 62865
DIAMOND RED             
1 42783U 17036U   18223.12261069  .00000678  00000-0  33108-4 0  9994
2 42783  97.3969 281.9011 0010925 240.0227 119.9925 15.21560134 62861
PEGASUS                 
1 42784U 17036V   18223.61387645  .00000812  00000-0  38827-4 0  9991
2 42784  97.3970 282.4722 0010856 237.9858 122.0323 15.21775332 62941
DIAMOND GREEN           
1 42785U 17036W   18223.38446049  .00000720  00000-0  34989-4 0  9993
2 42785  97.3971 282.1733 0010820 239.5670 120.4497 15.21563441 62976
DIAMOND BLUE            
1 42786U 17036X   18223.12057246  .00000690  00000-0  33643-4 0  9995
2 42786  97.3970 281.9137 0010642 240.8748 119.1423 15.21562153 62933
NUDTSAT                 
1 42787U 17036Y   18223.57600991  .00001217  00000-0  55669-4 0  9994
2 42787  97.3978 282.6918 0010421 237.0887 122.9347 15.22400568 62797
SUCHAI                  
1 42788U 17036Z   18222.64059594  .00000910  00000-0  42777-4 0  9994
2 42788  97.3972 281.6373 0010414 241.3811 118.6378 15.22060705 62873
SKCUBE                  
1 42789U 17036AA  18223.10172594  .00000849  00000-0  40172-4 0  9991
2 42789  97.3969 282.0806 0010286 239.5984 120.4236 15.22016004 62869
VZLUSAT-1               
1 42790U 17036AB  18223.23598437  .00001152  00000-0  52842-4 0  9990
2 42790  97.3974 282.3641 0009932 238.6747 121.3518 15.22416585 62894
ROBUSTA-1B              
1 42792U 17036AD  18223.13089674  .00000897  00000-0  42085-4 0  9992
2 42792  97.3968 282.1828 0009850 240.3483 119.6773 15.22164778 62886
CICERO 6                
1 42793U 17036AE  18223.39458642  .00000697  00000-0  33567-4 0  9999
2 42793  97.3961 282.4182 0009006 240.6420 119.3918 15.21971408 62998
D-SAT                   
1 42794U 17036AF  18223.61583970  .00000286  00000-0  30131-4 0  9996
2 42794  97.5870 276.1650 0128592  97.7629 263.8212 14.90905469 61983
TOKI                    
1 42820U 98067MU  18223.00388938  .00018763  00000-0  15772-3 0  9991
2 42820  51.6343  81.5460 0002145  28.4272 331.6842 15.69927078 62460
MAZAALAI (NUMSAT-1)     
1 42822U 98067MW  18223.55760919  .00018736  00000-0  15958-3 0  9992
2 42822  51.6346  79.2516 0002236  36.5418 323.5731 15.69608690 62546
BRAC ONNESHA            
1 42823U 98067MX  18222.97671315  .00018644  00000-0  15803-3 0  9996
2 42823  51.6355  82.1434 0004475  47.7086 312.4290 15.69724780 62457
NIGERIAEDUSAT-1         
1 42824U 98067MY  18223.00887581  .00018284  00000-0  15670-3 0  9998
2 42824  51.6359  82.3779 0004469  47.4996 312.6379 15.69471500 62455
CORVUS BC2              
1 42846U 17042X   18223.54191835  .00000266  00000-0  31631-4 0  9992
2 42846  97.5915 124.4030 0010177  20.8767 339.2866 14.91840936 58625
